{
"type": "FeatureCollection",
"crs": { "type": "name", "properties": { "name": "urn:ogc:def:crs:OGC:1.3:CRS84" } },
                                                                                                                                  
"features": [
{ "type": "Feature", "properties": { "id": 6496, "StoreNum": 6496, "Address": "5807 TORRESDALE AVE", "City": "PHILADELPHIA", "State": "PA", "Zip": "19135-4112", "Latitude": 40.016238, "Longitude": -75.061363 }, "geometry": { "type": "Point", "coordinates": [ -75.061363, 40.016238 ] } },
{ "type": "Feature", "properties": { "id": 1932, "StoreNum": 1932, "Address": "8445-C FRANKFORD AVE", "City": "PHILADELPHIA", "State": "PA", "Zip": "19136-2420", "Latitude": 40.043659, "Longitude": -75.017935 }, "geometry": { "type": "Point", "coordinates": [ -75.017935, 40.043659 ] } },
{ "type": "Feature", "properties": { "id": 3364, "StoreNum": 3364, "Address": "7310 FRANKFORD AVE #14", "City": "PHILADELPHIA", "State": "PA", "Zip": "19136-3827", "Latitude": 40.037237, "Longitude": -75.040318 }, "geometry": { "type": "Point", "coordinates": [ -75.040318, 40.037237 ] } },
{ "type": "Feature", "properties": { "id": 7338, "StoreNum": 7338, "Address": "4334 FRANKFORD AVE", "City": "PHILADELPHIA", "State": "PA", "Zip": "19124-3826", "Latitude": 40.012161, "Longitude": -75.088972 }, "geometry": { "type": "Point", "coordinates": [ -75.088972, 40.012161 ] } },
{ "type": "Feature", "properties": { "id": 6422, "StoreNum": 6422, "Address": "6587 ROOSEVELT BLVD", "City": "PHILADELPHIA", "State": "PA", "Zip": "19149-2918", "Latitude": 40.035288, "Longitude": -75.065049 }, "geometry": { "type": "Point", "coordinates": [ -75.065049, 40.035288 ] } },
{ "type": "Feature", "properties": { "id": 7150, "StoreNum": 7150, "Address": "1500 EAST ERIE AVENUE", "City": "PHILADELPHIA", "State": "PA", "Zip": "19124-5604", "Latitude": 40.005436, "Longitude": -75.097743 }, "geometry": { "type": "Point", "coordinates": [ -75.097743, 40.005436 ] } },
{ "type": "Feature", "properties": { "id": 6163, "StoreNum": 6163, "Address": "3141 FRANKFORD AVE #59", "City": "PHILADELPHIA", "State": "PA", "Zip": "19134-3826", "Latitude": 39.992433, "Longitude": -75.110913 }, "geometry": { "type": "Point", "coordinates": [ -75.110913, 39.992433 ] } },
{ "type": "Feature", "properties": { "id": 6054, "StoreNum": 6054, "Address": "4501 CASTOR AVE", "City": "PHILADELPHIA", "State": "PA", "Zip": "19124-3045", "Latitude": 40.016864, "Longitude": -75.096379 }, "geometry": { "type": "Point", "coordinates": [ -75.096379, 40.016864 ] } },
{ "type": "Feature", "properties": { "id": 6427, "StoreNum": 6427, "Address": "2495 ARAMINGO AVE", "City": "PHILADELPHIA", "State": "PA", "Zip": "19125-3732", "Latitude": 39.974928, "Longitude": -75.119410 }, "geometry": { "type": "Point", "coordinates": [ -75.11941, 39.974928 ] } },
{ "type": "Feature", "properties": { "id": 7559, "StoreNum": 7559, "Address": "5719 OXFORD AVE", "City": "PHILADELPHIA", "State": "PA", "Zip": "19149-3721", "Latitude": 40.033266, "Longitude": -75.084780 }, "geometry": { "type": "Point", "coordinates": [ -75.08478, 40.033266 ] } },
{ "type": "Feature", "properties": { "id": 11774, "StoreNum": 11774, "Address": "6430 Castor Avenue", "City": "Philadelphia", "State": "PA", "Zip": "19149-2737", "Latitude": 40.040638, "Longitude": -75.076754 }, "geometry": { "type": "Point", "coordinates": [ -75.076753540000013, 40.040638 ] } },
{ "type": "Feature", "properties": { "id": 11370, "StoreNum": 11370, "Address": "4113 G Street", "City": "Philadelphia", "State": "PA", "Zip": "19124", "Latitude": 40.010973, "Longitude": -75.111791 }, "geometry": { "type": "Point", "coordinates": [ -75.11179137000002, 40.01097263 ] } },
{ "type": "Feature", "properties": { "id": 6868, "StoreNum": 6868, "Address": "321 E ALLEGHENY AVE #25", "City": "PHILADELPHIA", "State": "PA", "Zip": "19134-2320", "Latitude": 39.998340, "Longitude": -75.124430 }, "geometry": { "type": "Point", "coordinates": [ -75.12443, 39.99834 ] } },
{ "type": "Feature", "properties": { "id": 9057, "StoreNum": 9057, "Address": "180 W Girard Ave.", "City": "Philadelphia", "State": "PA", "Zip": "19123", "Latitude": 39.968531, "Longitude": -75.139361 }, "geometry": { "type": "Point", "coordinates": [ -75.139361, 39.968531 ] } },
{ "type": "Feature", "properties": { "id": 11349, "StoreNum": 11349, "Address": "229 W Allegheny Avenue", "City": "Philadelphia", "State": "PA", "Zip": "19133-3643", "Latitude": 39.999622, "Longitude": -75.134811 }, "geometry": { "type": "Point", "coordinates": [ -75.13481074, 39.999622420000016 ] } },
{ "type": "Feature", "properties": { "id": 5756, "StoreNum": 5756, "Address": "6429 RISING SUN RD", "City": "PHILADELPHIA", "State": "PA", "Zip": "19111-5228", "Latitude": 40.050318, "Longitude": -75.094534 }, "geometry": { "type": "Point", "coordinates": [ -75.094534, 40.050318 ] } },
{ "type": "Feature", "properties": { "id": 8948, "StoreNum": 8948, "Address": "701 W Lehigh Avenue", "City": "Philadelphia", "State": "PA", "Zip": "19133-2233", "Latitude": 39.993723, "Longitude": -75.144307 }, "geometry": { "type": "Point", "coordinates": [ -75.144307, 39.993723 ] } },
{ "type": "Feature", "properties": { "id": 6677, "StoreNum": 6677, "Address": "2649 Germantown Avenue", "City": "Philadelphia", "State": "PA", "Zip": "19133-1618", "Latitude": 39.992812, "Longitude": -75.147643 }, "geometry": { "type": "Point", "coordinates": [ -75.147643, 39.992812 ] } },
{ "type": "Feature", "properties": { "id": 6739, "StoreNum": 6739, "Address": "4617 N 5TH ST", "City": "PHILADELPHIA", "State": "PA", "Zip": "19140-1401", "Latitude": 40.021352, "Longitude": -75.133480 }, "geometry": { "type": "Point", "coordinates": [ -75.13348, 40.021352 ] } },
{ "type": "Feature", "properties": { "id": 2871, "StoreNum": 2871, "Address": "6201 N FRONT ST", "City": "PHILADELPHIA", "State": "PA", "Zip": "19120-1541", "Latitude": 40.045684, "Longitude": -75.118239 }, "geometry": { "type": "Point", "coordinates": [ -75.118239, 40.045684 ] } },
{ "type": "Feature", "properties": { "id": 7417, "StoreNum": 7417, "Address": "906 N BROAD ST STE 16", "City": "PHILADELPHIA", "State": "PA", "Zip": "19130-1604", "Latitude": 39.970698, "Longitude": -75.159985 }, "geometry": { "type": "Point", "coordinates": [ -75.159985, 39.970698 ] } },
{ "type": "Feature", "properties": { "id": 8371, "StoreNum": 8371, "Address": "1700 Washington, Ave.", "City": "Philadelphia", "State": "PA", "Zip": "19146-3020", "Latitude": 39.938154, "Longitude": -75.171886 }, "geometry": { "type": "Point", "coordinates": [ -75.171886, 39.938154 ] } },
{ "type": "Feature", "properties": { "id": 7719, "StoreNum": 7719, "Address": "1925 West Allegheny Avenue", "City": "Philadelphia", "State": "PA", "Zip": "19132-1611", "Latitude": 40.003091, "Longitude": -75.162114 }, "geometry": { "type": "Point", "coordinates": [ -75.162114, 40.003091 ] } },
{ "type": "Feature", "properties": { "id": 11706, "StoreNum": 11706, "Address": "2201 W Cambria Street", "City": "Philadelphia", "State": "PA", "Zip": "19132-2010", "Latitude": 39.998934, "Longitude": -75.167134 }, "geometry": { "type": "Point", "coordinates": [ -75.16713379, 39.99893395 ] } },
{ "type": "Feature", "properties": { "id": 6886, "StoreNum": 6886, "Address": "1325 POINT BREEZE AVE", "City": "PHILADELPHIA", "State": "PA", "Zip": "19146-4361", "Latitude": 39.934858, "Longitude": -75.178900 }, "geometry": { "type": "Point", "coordinates": [ -75.1789, 39.934858 ] } },
{ "type": "Feature", "properties": { "id": 6928, "StoreNum": 6928, "Address": "6337 NORTH BROAD ST", "City": "PHILADELPHIA", "State": "PA", "Zip": "19141-2009", "Latitude": 40.050118, "Longitude": -75.141901 }, "geometry": { "type": "Point", "coordinates": [ -75.141901, 40.050118 ] } },
{ "type": "Feature", "properties": { "id": 9215, "StoreNum": 9215, "Address": "2701 W Hunting Park Avenue", "City": "Philadelphia", "State": "PA", "Zip": "19129-1304", "Latitude": 40.008140, "Longitude": -75.173208 }, "geometry": { "type": "Point", "coordinates": [ -75.173208, 40.00814 ] } },
{ "type": "Feature", "properties": { "id": 8204, "StoreNum": 8204, "Address": "2201 Oregon Ave.", "City": "Philadelphia", "State": "PA", "Zip": "19145-4111", "Latitude": 39.919080, "Longitude": -75.185015 }, "geometry": { "type": "Point", "coordinates": [ -75.185015, 39.91908 ] } },
{ "type": "Feature", "properties": { "id": 6201, "StoreNum": 6201, "Address": "5200 GERMANTOWN AVE", "City": "PHILADELPHIA", "State": "PA", "Zip": "19144-2302", "Latitude": 40.030931, "Longitude": -75.167493 }, "geometry": { "type": "Point", "coordinates": [ -75.167493, 40.030931 ] } },
{ "type": "Feature", "properties": { "id": 9194, "StoreNum": 9194, "Address": "138 W. Chelten Ave.", "City": "Philadelphia", "State": "PA", "Zip": "19144-3302", "Latitude": 40.032671, "Longitude": -75.177415 }, "geometry": { "type": "Point", "coordinates": [ -75.177415, 40.032671 ] } },
{ "type": "Feature", "properties": { "id": 10581, "StoreNum": 10581, "Address": "4061 Lancaster Avenue", "City": "Philadelphia", "State": "PA", "Zip": "19104-1747", "Latitude": 39.964815, "Longitude": -75.204508 }, "geometry": { "type": "Point", "coordinates": [ -75.204508, 39.964815 ] } }
]
}
