{
"type": "FeatureCollection",
"crs": { "type": "name", "properties": { "name": "urn:ogc:def:crs:OGC:1.3:CRS84" } },
                                                                                                                                  
"features": [
{ "type": "Feature", "properties": { "Store_Numb": "#04611", "Address": "5040 CITY LINE AVENUE", "City": "PHILADELPHIA", "State": "PA", "Zip_Code": 19131, "latitude": 40.061802, "longitude": -75.226904 }, "geometry": { "type": "Point", "coordinates": [ -75.226904, 40.061802 ] } },
{ "type": "Feature", "properties": { "Store_Numb": "#11132", "Address": "8500 HENRY AVENUE", "City": "PHILADELPHIA", "State": "PA", "Zip_Code": 19128, "latitude": 40.063840, "longitude": -75.238821 }, "geometry": { "type": "Point", "coordinates": [ -75.238821, 40.06384 ] } },
{ "type": "Feature", "properties": { "Store_Numb": "#00852", "Address": "11750 BUSTLETON AVENUE", "City": "PHILADELPHIA", "State": "PA", "Zip_Code": 19116, "latitude": 40.120488, "longitude": -75.018137 }, "geometry": { "type": "Point", "coordinates": [ -75.018137, 40.120488 ] } },
{ "type": "Feature", "properties": { "Store_Numb": "#01956", "Address": "12311 ACADEMY ROAD", "City": "PHILADELPHIA", "State": "PA", "Zip_Code": 19154, "latitude": 40.095327, "longitude": -74.976033 }, "geometry": { "type": "Point", "coordinates": [ -74.976033, 40.095327 ] } },
{ "type": "Feature", "properties": { "Store_Numb": "#11127", "Address": "9773 ROOSEVELT BLVD", "City": "PHILADELPHIA", "State": "PA", "Zip_Code": 19114, "latitude": 40.083638, "longitude": -75.024784 }, "geometry": { "type": "Point", "coordinates": [ -75.024784, 40.083638 ] } },
{ "type": "Feature", "properties": { "Store_Numb": "#00419", "Address": "8445 FRANKFORD AVENUE", "City": "PHILADELPHIA", "State": "PA", "Zip_Code": 19136, "latitude": 40.043990, "longitude": -75.017433 }, "geometry": { "type": "Point", "coordinates": [ -75.017433, 40.04399 ] } },
{ "type": "Feature", "properties": { "Store_Numb": "#00553", "Address": "4011 COTTMAN AVENUE", "City": "PHILADELPHIA", "State": "PA", "Zip_Code": 19135, "latitude": 40.035957, "longitude": -75.039518 }, "geometry": { "type": "Point", "coordinates": [ -75.039518, 40.035957 ] } },
{ "type": "Feature", "properties": { "Store_Numb": "#00554", "Address": "9280 KREWSTOWN ROAD", "City": "PHILADELPHIA", "State": "PA", "Zip_Code": 19115, "latitude": 40.085998, "longitude": -75.046779 }, "geometry": { "type": "Point", "coordinates": [ -75.046779, 40.085998 ] } },
{ "type": "Feature", "properties": { "Store_Numb": "#01016", "Address": "8130 ROOSEVELT BOULEVARD", "City": "PHILADELPHIA", "State": "PA", "Zip_Code": 19152, "latitude": 40.059167, "longitude": -75.045471 }, "geometry": { "type": "Point", "coordinates": [ -75.045471, 40.059167 ] } },
{ "type": "Feature", "properties": { "Store_Numb": "#01089", "Address": "3200-92 RED LION ROAD", "City": "PHILADELPHIA", "State": "PA", "Zip_Code": 19114, "latitude": 40.080338, "longitude": -74.994682 }, "geometry": { "type": "Point", "coordinates": [ -74.994682, 40.080338 ] } },
{ "type": "Feature", "properties": { "Store_Numb": "#01299", "Address": "2503-05 WELSH ROAD", "City": "PHILADELPHIA", "State": "PA", "Zip_Code": 19114, "latitude": 40.070323, "longitude": -75.030507 }, "geometry": { "type": "Point", "coordinates": [ -75.030507, 40.070323 ] } },
{ "type": "Feature", "properties": { "Store_Numb": "#03377", "Address": "7941 OXFORD AVENUE", "City": "PHILADELPHIA", "State": "PA", "Zip_Code": 19111, "latitude": 40.075743, "longitude": -75.084643 }, "geometry": { "type": "Point", "coordinates": [ -75.084643, 40.075743 ] } },
{ "type": "Feature", "properties": { "Store_Numb": "#04938", "Address": "7972 CASTOR AVENUE", "City": "PHILADELPHIA", "State": "PA", "Zip_Code": 19152, "latitude": 40.061480, "longitude": -75.056692 }, "geometry": { "type": "Point", "coordinates": [ -75.056692, 40.06148 ] } },
{ "type": "Feature", "properties": { "Store_Numb": "#04988", "Address": "9920 BUSTLETON AVENUE", "City": "PHILADELPHIA", "State": "PA", "Zip_Code": 19115, "latitude": 40.101316, "longitude": -75.030008 }, "geometry": { "type": "Point", "coordinates": [ -75.030008, 40.101316 ] } },
{ "type": "Feature", "properties": { "Store_Numb": "#07834", "Address": "9200 FRANKFORD AVENUE", "City": "PHILADELPHIA", "State": "PA", "Zip_Code": 19114, "latitude": 40.055467, "longitude": -75.004283 }, "geometry": { "type": "Point", "coordinates": [ -75.004283, 40.055467 ] } },
{ "type": "Feature", "properties": { "Store_Numb": "#11125", "Address": "7418-32 OXFORD AVENUE", "City": "PHILADELPHIA", "State": "PA", "Zip_Code": 19111, "latitude": 40.064463, "longitude": -75.084094 }, "geometry": { "type": "Point", "coordinates": [ -75.084094, 40.064463 ] } },
{ "type": "Feature", "properties": { "Store_Numb": "#11126", "Address": "9910 FRANKFORD AVENUE SUITE 250", "City": "PHILADELPHIA", "State": "PA", "Zip_Code": 19114, "latitude": 40.064947, "longitude": -74.983767 }, "geometry": { "type": "Point", "coordinates": [ -74.983767, 40.064947 ] } },
{ "type": "Feature", "properties": { "Store_Numb": "#11141", "Address": "4000 WOODHAVEN ROAD", "City": "PHILADELPHIA", "State": "PA", "Zip_Code": 19154, "latitude": 40.084895, "longitude": -74.972178 }, "geometry": { "type": "Point", "coordinates": [ -74.972178, 40.084895 ] } },
{ "type": "Feature", "properties": { "Store_Numb": "#00822", "Address": "5911-5933 RIDGE AVENUE", "City": "PHILADELPHIA", "State": "PA", "Zip_Code": 19128, "latitude": 40.030633, "longitude": -75.211292 }, "geometry": { "type": "Point", "coordinates": [ -75.211292, 40.030633 ] } },
{ "type": "Feature", "properties": { "Store_Numb": "#00872", "Address": "164 WEST CHELTEN AVENUE", "City": "PHILADELPHIA", "State": "PA", "Zip_Code": 19144, "latitude": 40.032202, "longitude": -75.177809 }, "geometry": { "type": "Point", "coordinates": [ -75.177809, 40.032202 ] } },
{ "type": "Feature", "properties": { "Store_Numb": "#01288", "Address": "1315 EAST WASHINGTON LANE", "City": "PHILADELPHIA", "State": "PA", "Zip_Code": 19138, "latitude": 40.058554, "longitude": -75.166361 }, "geometry": { "type": "Point", "coordinates": [ -75.166361, 40.058554 ] } },
{ "type": "Feature", "properties": { "Store_Numb": "#01563", "Address": "6201 GERMANTOWN AVENUE", "City": "PHILADELPHIA", "State": "PA", "Zip_Code": 19144, "latitude": 40.042865, "longitude": -75.179849 }, "geometry": { "type": "Point", "coordinates": [ -75.179849, 40.042865 ] } },
{ "type": "Feature", "properties": { "Store_Numb": "#01941", "Address": "7401 OGONTZ AVENUE", "City": "PHILADELPHIA", "State": "PA", "Zip_Code": 19138, "latitude": 40.067514, "longitude": -75.156087 }, "geometry": { "type": "Point", "coordinates": [ -75.156087, 40.067514 ] } },
{ "type": "Feature", "properties": { "Store_Numb": "#02604", "Address": "6101 NORTH BROAD STREET", "City": "PHILADELPHIA", "State": "PA", "Zip_Code": 19141, "latitude": 40.046051, "longitude": -75.142409 }, "geometry": { "type": "Point", "coordinates": [ -75.142409, 40.046051 ] } },
{ "type": "Feature", "properties": { "Store_Numb": "#02709", "Address": "8235 STENTON AVENUE", "City": "PHILADELPHIA", "State": "PA", "Zip_Code": 19150, "latitude": 40.068848, "longitude": -75.180884 }, "geometry": { "type": "Point", "coordinates": [ -75.180884, 40.068848 ] } },
{ "type": "Feature", "properties": { "Store_Numb": "#03251", "Address": "3601 MIDVALE AVENUE", "City": "PHILADELPHIA", "State": "PA", "Zip_Code": 19129, "latitude": 40.012860, "longitude": -75.193001 }, "geometry": { "type": "Point", "coordinates": [ -75.193001, 40.01286 ] } },
{ "type": "Feature", "properties": { "Store_Numb": "#03461", "Address": "5301 CHEW AVENUE", "City": "PHILADELPHIA", "State": "PA", "Zip_Code": 19138, "latitude": 40.042985, "longitude": -75.159898 }, "geometry": { "type": "Point", "coordinates": [ -75.159898, 40.042985 ] } },
{ "type": "Feature", "properties": { "Store_Numb": "#03688", "Address": "4616-4650 NORTH BROAD STREET", "City": "PHILADELPHIA", "State": "PA", "Zip_Code": 19140, "latitude": 40.024056, "longitude": -75.148293 }, "geometry": { "type": "Point", "coordinates": [ -75.148293, 40.024056 ] } },
{ "type": "Feature", "properties": { "Store_Numb": "#11130", "Address": "7700 CRITTENDEN STREETSUITE 101C", "City": "PHILADELPHIA", "State": "PA", "Zip_Code": 19118, "latitude": 40.071564, "longitude": -75.193911 }, "geometry": { "type": "Point", "coordinates": [ -75.193911, 40.071564 ] } },
{ "type": "Feature", "properties": { "Store_Numb": "#11136", "Address": "1334 WINDRIM AVENUE", "City": "PHILADELPHIA", "State": "PA", "Zip_Code": 19141, "latitude": 40.029643, "longitude": -75.145435 }, "geometry": { "type": "Point", "coordinates": [ -75.145435, 40.029643 ] } },
{ "type": "Feature", "properties": { "Store_Numb": "#00145", "Address": "5694 RISING SUN AVENUE STE 11", "City": "PHILADELPHIA", "State": "PA", "Zip_Code": 19120, "latitude": 40.040187, "longitude": -75.109638 }, "geometry": { "type": "Point", "coordinates": [ -75.109638, 40.040187 ] } },
{ "type": "Feature", "properties": { "Store_Numb": "#00225", "Address": "5612 N. FIFTH STREET", "City": "PHILADELPHIA", "State": "PA", "Zip_Code": 19120, "latitude": 40.036896, "longitude": -75.130778 }, "geometry": { "type": "Point", "coordinates": [ -75.130778, 40.036896 ] } },
{ "type": "Feature", "properties": { "Store_Numb": "#00478", "Address": "5400 RISING SUN AVENUE", "City": "PHILADELPHIA", "State": "PA", "Zip_Code": 19120, "latitude": 40.032034, "longitude": -75.117568 }, "geometry": { "type": "Point", "coordinates": [ -75.117568, 40.032034 ] } },
{ "type": "Feature", "properties": { "Store_Numb": "#00552", "Address": "6401 OXFORD AVENUE", "City": "PHILADELPHIA", "State": "PA", "Zip_Code": 19111, "latitude": 40.045547, "longitude": -75.087592 }, "geometry": { "type": "Point", "coordinates": [ -75.087592, 40.045547 ] } },
{ "type": "Feature", "properties": { "Store_Numb": "#00821", "Address": "6744-46 NORTH FIFTH STREET", "City": "PHILADELPHIA", "State": "PA", "Zip_Code": 19126, "latitude": 40.054804, "longitude": -75.126880 }, "geometry": { "type": "Point", "coordinates": [ -75.12688, 40.054804 ] } },
{ "type": "Feature", "properties": { "Store_Numb": "#00895", "Address": "3900 CASTOR AVENUE", "City": "PHILADELPHIA", "State": "PA", "Zip_Code": 19124, "latitude": 40.006306, "longitude": -75.099493 }, "geometry": { "type": "Point", "coordinates": [ -75.099493, 40.006306 ] } },
{ "type": "Feature", "properties": { "Store_Numb": "#01754", "Address": "4390 RICHMOND STREET", "City": "PHILADELPHIA", "State": "PA", "Zip_Code": 19137, "latitude": 39.997539, "longitude": -75.074225 }, "geometry": { "type": "Point", "coordinates": [ -75.074225, 39.997539 ] } },
{ "type": "Feature", "properties": { "Store_Numb": "#02252", "Address": "5272 TORRESDALE AVENUE", "City": "PHILADELPHIA", "State": "PA", "Zip_Code": 19124, "latitude": 40.014054, "longitude": -75.067593 }, "geometry": { "type": "Point", "coordinates": [ -75.067593, 40.014054 ] } },
{ "type": "Feature", "properties": { "Store_Numb": "#02564", "Address": "113-131 WEST WYOMING AVENUE", "City": "PHILADELPHIA", "State": "PA", "Zip_Code": 19140, "latitude": 40.021951, "longitude": -75.125130 }, "geometry": { "type": "Point", "coordinates": [ -75.12513, 40.021951 ] } },
{ "type": "Feature", "properties": { "Store_Numb": "#03394", "Address": "4530 NORTH 5TH STREET", "City": "PHILADELPHIA", "State": "PA", "Zip_Code": 19140, "latitude": 40.020892, "longitude": -75.134862 }, "geometry": { "type": "Point", "coordinates": [ -75.134862, 40.020892 ] } },
{ "type": "Feature", "properties": { "Store_Numb": "#03637", "Address": "6363 FRANKFORD AVENUE", "City": "PHILADELPHIA", "State": "PA", "Zip_Code": 19135, "latitude": 40.028029, "longitude": -75.057938 }, "geometry": { "type": "Point", "coordinates": [ -75.057938, 40.028029 ] } },
{ "type": "Feature", "properties": { "Store_Numb": "#11135", "Address": "6327-43 TORRESDALE AVENUE", "City": "PHILADELPHIA", "State": "PA", "Zip_Code": 19135, "latitude": 40.020862, "longitude": -75.052309 }, "geometry": { "type": "Point", "coordinates": [ -75.052309, 40.020862 ] } },
{ "type": "Feature", "properties": { "Store_Numb": "#11139", "Address": "6515 CASTOR AVENUE", "City": "PHILADELPHIA", "State": "PA", "Zip_Code": 19149, "latitude": 40.040919, "longitude": -75.075298 }, "geometry": { "type": "Point", "coordinates": [ -75.075298, 40.040919 ] } },
{ "type": "Feature", "properties": { "Store_Numb": "#00226", "Address": "338 EAST ALLEGHENY AVENUE", "City": "PHILADELPHIA", "State": "PA", "Zip_Code": 19134, "latitude": 39.997221, "longitude": -75.123667 }, "geometry": { "type": "Point", "coordinates": [ -75.123667, 39.997221 ] } },
{ "type": "Feature", "properties": { "Store_Numb": "#01127", "Address": "2131-59 NORTH BROAD STREET", "City": "PHILADELPHIA", "State": "PA", "Zip_Code": 19122, "latitude": 39.985811, "longitude": -75.155600 }, "geometry": { "type": "Point", "coordinates": [ -75.1556, 39.985811 ] } },
{ "type": "Feature", "properties": { "Store_Numb": "#01767", "Address": "2801 W. DAUPHIN STREET", "City": "PHILADELPHIA", "State": "PA", "Zip_Code": 19132, "latitude": 39.991951, "longitude": -75.178917 }, "geometry": { "type": "Point", "coordinates": [ -75.178917, 39.991951 ] } },
{ "type": "Feature", "properties": { "Store_Numb": "#02578", "Address": "HOPE PLAZA2121 LEHIGH AVENUE", "City": "PHILADELPHIA", "State": "PA", "Zip_Code": 19132, "latitude": 39.991151, "longitude": -75.137097 }, "geometry": { "type": "Point", "coordinates": [ -75.137097, 39.991151 ] } },
{ "type": "Feature", "properties": { "Store_Numb": "#02587", "Address": "3260 NORTH BROAD STREET", "City": "PHILADELPHIA", "State": "PA", "Zip_Code": 19140, "latitude": 40.002963, "longitude": -75.152965 }, "geometry": { "type": "Point", "coordinates": [ -75.152965, 40.002963 ] } },
{ "type": "Feature", "properties": { "Store_Numb": "#02698", "Address": "339 SPRING GARDEN STREET", "City": "PHILADELPHIA", "State": "PA", "Zip_Code": 19123, "latitude": 39.961499, "longitude": -75.144719 }, "geometry": { "type": "Point", "coordinates": [ -75.144719, 39.961499 ] } },
{ "type": "Feature", "properties": { "Store_Numb": "#02790", "Address": "1528 NORTH BROAD STREET", "City": "PHILADELPHIA", "State": "PA", "Zip_Code": 19121, "latitude": 39.977075, "longitude": -75.158807 }, "geometry": { "type": "Point", "coordinates": [ -75.158807, 39.977075 ] } },
{ "type": "Feature", "properties": { "Store_Numb": "#02793", "Address": "1201-43 WEST GIRARD AVE.", "City": "PHILADELPHIA", "State": "PA", "Zip_Code": 19123, "latitude": 39.971433, "longitude": -75.156219 }, "geometry": { "type": "Point", "coordinates": [ -75.156219, 39.971433 ] } },
{ "type": "Feature", "properties": { "Store_Numb": "#03225", "Address": "2201 WEST ALLEGHENY AVE.", "City": "PHILADELPHIA", "State": "PA", "Zip_Code": 19132, "latitude": 40.003633, "longitude": -75.166315 }, "geometry": { "type": "Point", "coordinates": [ -75.166315, 40.003633 ] } },
{ "type": "Feature", "properties": { "Store_Numb": "#03430", "Address": "2101 EAST ALLEGHENY AVENUE", "City": "PHILADELPHIA", "State": "PA", "Zip_Code": 19134, "latitude": 39.992388, "longitude": -75.109163 }, "geometry": { "type": "Point", "coordinates": [ -75.109163, 39.992388 ] } },
{ "type": "Feature", "properties": { "Store_Numb": "#03434", "Address": "1924-40 FAIRMOUNT AVENUE", "City": "PHILADELPHIA", "State": "PA", "Zip_Code": 19130, "latitude": 39.967007, "longitude": -75.169708 }, "geometry": { "type": "Point", "coordinates": [ -75.169708, 39.967007 ] } },
{ "type": "Feature", "properties": { "Store_Numb": "#04932", "Address": "260 WEST LEHIGH AVENUE #80", "City": "PHILADELPHIA", "State": "PA", "Zip_Code": 19133, "latitude": 39.991155, "longitude": -75.137149 }, "geometry": { "type": "Point", "coordinates": [ -75.137149, 39.991155 ] } },
{ "type": "Feature", "properties": { "Store_Numb": "#11133", "Address": "2000 HAMILTON STREET", "City": "PHILADELPHIA", "State": "PA", "Zip_Code": 19130, "latitude": 39.962004, "longitude": -75.172275 }, "geometry": { "type": "Point", "coordinates": [ -75.172275, 39.962004 ] } },
{ "type": "Feature", "properties": { "Store_Numb": "#00174", "Address": "1628-36 CHESTNUT STREET", "City": "PHILADELPHIA", "State": "PA", "Zip_Code": 19103, "latitude": 39.951263, "longitude": -75.168390 }, "geometry": { "type": "Point", "coordinates": [ -75.16839, 39.951263 ] } },
{ "type": "Feature", "properties": { "Store_Numb": "#00242", "Address": "730-32 MARKET STREET", "City": "PHILADELPHIA", "State": "PA", "Zip_Code": 19106, "latitude": 39.950741, "longitude": -75.153317 }, "geometry": { "type": "Point", "coordinates": [ -75.153317, 39.950741 ] } },
{ "type": "Feature", "properties": { "Store_Numb": "#01067", "Address": "7564 HAVERFORD AVE.", "City": "PHILADELPHIA", "State": "PA", "Zip_Code": 19151, "latitude": 39.978519, "longitude": -75.268135 }, "geometry": { "type": "Point", "coordinates": [ -75.268135, 39.978519 ] } },
{ "type": "Feature", "properties": { "Store_Numb": "#01365", "Address": "215 SOUTH BROAD STREET", "City": "PHILADELPHIA", "State": "PA", "Zip_Code": 19107, "latitude": 39.956713, "longitude": -75.162291 }, "geometry": { "type": "Point", "coordinates": [ -75.162291, 39.956713 ] } },
{ "type": "Feature", "properties": { "Store_Numb": "#02451", "Address": "5214-30 BALTIMORE AVENUE", "City": "PHILADELPHIA", "State": "PA", "Zip_Code": 19143, "latitude": 39.947258, "longitude": -75.228888 }, "geometry": { "type": "Point", "coordinates": [ -75.228888, 39.947258 ] } },
{ "type": "Feature", "properties": { "Store_Numb": "#03227", "Address": "3000-02 REED STREET", "City": "PHILADELPHIA", "State": "PA", "Zip_Code": 19146, "latitude": 39.935991, "longitude": -75.194589 }, "geometry": { "type": "Point", "coordinates": [ -75.194589, 39.935991 ] } },
{ "type": "Feature", "properties": { "Store_Numb": "#03457", "Address": "136 NORTH 63RD STREET", "City": "PHILADELPHIA", "State": "PA", "Zip_Code": 19139, "latitude": 39.965569, "longitude": -75.246695 }, "geometry": { "type": "Point", "coordinates": [ -75.246695, 39.965569 ] } },
{ "type": "Feature", "properties": { "Store_Numb": "#03523", "Address": "1105-09 N. 63RD STREET", "City": "PHILADELPHIA", "State": "PA", "Zip_Code": 19151, "latitude": 39.981603, "longitude": -75.246345 }, "geometry": { "type": "Point", "coordinates": [ -75.246345, 39.981603 ] } },
{ "type": "Feature", "properties": { "Store_Numb": "#03681", "Address": "5440 LANSDOWNE AVENUE", "City": "PHILADELPHIA", "State": "PA", "Zip_Code": 19131, "latitude": 39.976522, "longitude": -75.231121 }, "geometry": { "type": "Point", "coordinates": [ -75.231121, 39.976522 ] } },
{ "type": "Feature", "properties": { "Store_Numb": "#03770", "Address": "1000-1008 MARKET STREET", "City": "PHILADELPHIA", "State": "PA", "Zip_Code": 19107, "latitude": 39.951231, "longitude": -75.156992 }, "geometry": { "type": "Point", "coordinates": [ -75.156992, 39.951231 ] } },
{ "type": "Feature", "properties": { "Store_Numb": "#03959", "Address": "2301 WALNUT STREET", "City": "PHILADELPHIA", "State": "PA", "Zip_Code": 19103, "latitude": 39.951645, "longitude": -75.178671 }, "geometry": { "type": "Point", "coordinates": [ -75.178671, 39.951645 ] } },
{ "type": "Feature", "properties": { "Store_Numb": "#11124", "Address": "4055-89 MARKET STREET", "City": "PHILADELPHIA", "State": "PA", "Zip_Code": 19104, "latitude": 39.957800, "longitude": -75.204142 }, "geometry": { "type": "Point", "coordinates": [ -75.204142, 39.9578 ] } },
{ "type": "Feature", "properties": { "Store_Numb": "#00479", "Address": "7615 LINDBERGH BOULEVARD", "City": "PHILADELPHIA", "State": "PA", "Zip_Code": 19153, "latitude": 39.905120, "longitude": -75.239445 }, "geometry": { "type": "Point", "coordinates": [ -75.239445, 39.90512 ] } },
{ "type": "Feature", "properties": { "Store_Numb": "#01766", "Address": "10 SNYDER AVENUE", "City": "PHILADELPHIA", "State": "PA", "Zip_Code": 19148, "latitude": 39.921189, "longitude": -75.146513 }, "geometry": { "type": "Point", "coordinates": [ -75.146513, 39.921189 ] } },
{ "type": "Feature", "properties": { "Store_Numb": "#01936", "Address": "2017-2023 SOUTH BROAD ST.", "City": "PHILADELPHIA", "State": "PA", "Zip_Code": 19148, "latitude": 39.924930, "longitude": -75.169164 }, "geometry": { "type": "Point", "coordinates": [ -75.169164, 39.92493 ] } },
{ "type": "Feature", "properties": { "Store_Numb": "#03325", "Address": "1443 SOUTH 7TH STREET", "City": "PHILADELPHIA", "State": "PA", "Zip_Code": 19147, "latitude": 39.930272, "longitude": -75.155949 }, "geometry": { "type": "Point", "coordinates": [ -75.155949, 39.930272 ] } },
{ "type": "Feature", "properties": { "Store_Numb": "#03783", "Address": "810-814 SOUTH BROAD STREET", "City": "PHILADELPHIA", "State": "PA", "Zip_Code": 19146, "latitude": 39.940408, "longitude": -75.166821 }, "geometry": { "type": "Point", "coordinates": [ -75.166821, 39.940408 ] } },
{ "type": "Feature", "properties": { "Store_Numb": "#03801", "Address": "704-20 EAST PASSYUNK AVENUE", "City": "PHILADELPHIA", "State": "PA", "Zip_Code": 19147, "latitude": 39.940223, "longitude": -75.151640 }, "geometry": { "type": "Point", "coordinates": [ -75.15164, 39.940223 ] } },
{ "type": "Feature", "properties": { "Store_Numb": "#03825", "Address": "801 SOUTH 9TH STREET", "City": "PHILADELPHIA", "State": "PA", "Zip_Code": 19147, "latitude": 39.939416, "longitude": -75.157369 }, "geometry": { "type": "Point", "coordinates": [ -75.157369, 39.939416 ] } },
{ "type": "Feature", "properties": { "Store_Numb": "#03876", "Address": "1500 W. MOYAMENSING AVENUE", "City": "PHILADELPHIA", "State": "PA", "Zip_Code": 19145, "latitude": 39.916052, "longitude": -75.173488 }, "geometry": { "type": "Point", "coordinates": [ -75.173488, 39.916052 ] } },
{ "type": "Feature", "properties": { "Store_Numb": "#11131", "Address": "2545 ARAMINGO AVENUE.", "City": "PHILADELPHIA", "State": "PA", "Zip_Code": 19125, "latitude": 39.977852, "longitude": -75.118511 }, "geometry": { "type": "Point", "coordinates": [ -75.118511, 39.977852 ] } },
{ "type": "Feature", "properties": { "Store_Numb": "#11134", "Address": "2401 EAST VENANGO STREET", "City": "PHILADELPHIA", "State": "PA", "Zip_Code": 19134, "latitude": 39.993183, "longitude": -75.096154 }, "geometry": { "type": "Point", "coordinates": [ -75.096154, 39.993183 ] } },
{ "type": "Feature", "properties": { "Store_Numb": "#11137", "Address": "522 SOUTH SECOND STREET", "City": "PHILADELPHIA", "State": "PA", "Zip_Code": 19147, "latitude": 39.942028, "longitude": -75.145770 }, "geometry": { "type": "Point", "coordinates": [ -75.14577, 39.942028 ] } },
{ "type": "Feature", "properties": { "Store_Numb": "#11140", "Address": "2512 ISLAND AVENUE", "City": "PHILADELPHIA", "State": "PA", "Zip_Code": 19153, "latitude": 39.912136, "longitude": -75.243720 }, "geometry": { "type": "Point", "coordinates": [ -75.24372, 39.912136 ] } },
{ "type": "Feature", "properties": { "Store_Numb": "#01764", "Address": "5627-99 CHESTNUT STREET", "City": "PHILADELPHIA", "State": "PA", "Zip_Code": 19139, "latitude": 39.960181, "longitude": -75.234428 }, "geometry": { "type": "Point", "coordinates": [ -75.234428, 39.960181 ] } },
{ "type": "Feature", "properties": { "Store_Numb": "#03213", "Address": "4641-51 CHESTNUT STREET", "City": "PHILADELPHIA", "State": "PA", "Zip_Code": 19139, "latitude": 39.957676, "longitude": -75.214875 }, "geometry": { "type": "Point", "coordinates": [ -75.214875, 39.957676 ] } },
{ "type": "Feature", "properties": { "Store_Numb": "#04554", "Address": "6731 WOODLAND AVENUE", "City": "PHILADELPHIA", "State": "PA", "Zip_Code": 19142, "latitude": 39.923268, "longitude": -75.238403 }, "geometry": { "type": "Point", "coordinates": [ -75.238403, 39.923268 ] } }
]
}
