{
"type": "FeatureCollection",
"crs": { "type": "name", "properties": { "name": "urn:ogc:def:crs:OGC:1.3:CRS84" } },
                                                                                                                                  
"features": [
{ "type": "Feature", "properties": { "Address": "1215 FILBERT STREET", "City": "Philadelphia", "State": "PA", "Latitude": 39.953107, "Longitude": -75.160453, "StoreNumbe": 33516, "Zip": 19107, "CoporateSt": "TRUE" }, "geometry": { "type": "Point", "coordinates": [ -75.16045347, 39.953106930000011 ] } },
{ "type": "Feature", "properties": { "Address": "1319 MARKET ST", "City": "Philadelphia", "State": "PA", "Latitude": 39.952291, "Longitude": -75.162032, "StoreNumbe": 35669, "Zip": 19107, "CoporateSt": "TRUE" }, "geometry": { "type": "Point", "coordinates": [ -75.162031520000014, 39.9522913 ] } },
{ "type": "Feature", "properties": { "Address": "1201 CHESTNUT STREET", "City": "Philadelphia", "State": "PA", "Latitude": 39.950468, "Longitude": -75.160325, "StoreNumbe": 33305, "Zip": 19107, "CoporateSt": "TRUE" }, "geometry": { "type": "Point", "coordinates": [ -75.16032456, 39.95046776 ] } },
{ "type": "Feature", "properties": { "Address": "932 MARKET ST", "City": "Philadelphia", "State": "PA", "Latitude": 39.951243, "Longitude": -75.156402, "StoreNumbe": 35980, "Zip": 19107, "CoporateSt": "TRUE" }, "geometry": { "type": "Point", "coordinates": [ -75.156401750000015, 39.95124322 ] } },
{ "type": "Feature", "properties": { "Address": "917 FILBERT AVE", "City": "Philadelphia", "State": "PA", "Latitude": 39.952517, "Longitude": -75.155634, "StoreNumbe": 36493, "Zip": 19107, "CoporateSt": "TRUE" }, "geometry": { "type": "Point", "coordinates": [ -75.155633850000029, 39.95251735 ] } },
{ "type": "Feature", "properties": { "Address": "1500 JFK BLVD.", "City": "Philadelphia", "State": "PA", "Latitude": 39.953916, "Longitude": -75.166891, "StoreNumbe": 33380, "Zip": 0, "CoporateSt": "TRUE" }, "geometry": { "type": "Point", "coordinates": [ -75.166891430000021, 39.95391561 ] } },
{ "type": "Feature", "properties": { "Address": "804 WALNUT STREET", "City": "Philadelphia", "State": "PA", "Latitude": 39.947975, "Longitude": -75.154471, "StoreNumbe": 33358, "Zip": 19107, "CoporateSt": "TRUE" }, "geometry": { "type": "Point", "coordinates": [ -75.15447062, 39.947975089999979 ] } },
{ "type": "Feature", "properties": { "Address": "1 FRANKLIN TOWN BLVD", "City": "Philadelphia", "State": "PA", "Latitude": 39.960090, "Longitude": -75.167620, "StoreNumbe": 36108, "Zip": 19103, "CoporateSt": "TRUE" }, "geometry": { "type": "Point", "coordinates": [ -75.16762, 39.96009 ] } },
{ "type": "Feature", "properties": { "Address": "1835 ARCH ST SPACE B", "City": "Philadelphia", "State": "PA", "Latitude": 39.955455, "Longitude": -75.170819, "StoreNumbe": 36109, "Zip": 19103, "CoporateSt": "TRUE" }, "geometry": { "type": "Point", "coordinates": [ -75.170818550000021, 39.95545514 ] } },
{ "type": "Feature", "properties": { "Address": "242-244 MARKET ST", "City": "Philadelphia", "State": "PA", "Latitude": 39.949980, "Longitude": -75.145519, "StoreNumbe": 36875, "Zip": 19106, "CoporateSt": "TRUE" }, "geometry": { "type": "Point", "coordinates": [ -75.14551897, 39.94998007 ] } },
{ "type": "Feature", "properties": { "Address": "226 W RITTENHOUSE SQUARE", "City": "Philadelphia", "State": "PA", "Latitude": 39.949306, "Longitude": -75.174187, "StoreNumbe": 39229, "Zip": 19103, "CoporateSt": "TRUE" }, "geometry": { "type": "Point", "coordinates": [ -75.174187040000021, 39.94930551 ] } },
{ "type": "Feature", "properties": { "Address": "2200 MARKET ST", "City": "Philadelphia", "State": "PA", "Latitude": 39.953758, "Longitude": -75.176903, "StoreNumbe": 36962, "Zip": 19103, "CoporateSt": "TRUE" }, "geometry": { "type": "Point", "coordinates": [ -75.176902770000012, 39.95375824 ] } },
{ "type": "Feature", "properties": { "Address": "1701 SOUTH ST", "City": "Philadelphia", "State": "PA", "Latitude": 39.944400, "Longitude": -75.170550, "StoreNumbe": 36006, "Zip": 19146, "CoporateSt": "TRUE" }, "geometry": { "type": "Point", "coordinates": [ -75.17055, 39.9444 ] } },
{ "type": "Feature", "properties": { "Address": "2144-48 LOMBARD ST", "City": "Philadelphia", "State": "PA", "Latitude": 39.946166, "Longitude": -75.178202, "StoreNumbe": 21898, "Zip": 0, "CoporateSt": "TRUE" }, "geometry": { "type": "Point", "coordinates": [ -75.178201560000019, 39.946165800000017 ] } },
{ "type": "Feature", "properties": { "Address": "1034-38 WASHINGTON AVENUE", "City": "Philadelphia", "State": "PA", "Latitude": 39.936837, "Longitude": -75.161154, "StoreNumbe": 26135, "Zip": 0, "CoporateSt": "TRUE" }, "geometry": { "type": "Point", "coordinates": [ -75.161154200000013, 39.93683684 ] } },
{ "type": "Feature", "properties": { "Address": "23 W GIRARD AVE", "City": "Philadelphia", "State": "PA", "Latitude": 39.969128, "Longitude": -75.135609, "StoreNumbe": 39517, "Zip": 19125, "CoporateSt": "TRUE" }, "geometry": { "type": "Point", "coordinates": [ -75.135608500000018, 39.969128280000014 ] } },
{ "type": "Feature", "properties": { "Address": "847 S 2ND ST", "City": "Philadelphia", "State": "PA", "Latitude": 39.936130, "Longitude": -75.146490, "StoreNumbe": 36107, "Zip": 19147, "CoporateSt": "TRUE" }, "geometry": { "type": "Point", "coordinates": [ -75.146490090000015, 39.93612981 ] } },
{ "type": "Feature", "properties": { "Address": "1084 DELAWARE AVE", "City": "Philadelphia", "State": "PA", "Latitude": 39.965818, "Longitude": -75.132108, "StoreNumbe": 35275, "Zip": 19125, "CoporateSt": "TRUE" }, "geometry": { "type": "Point", "coordinates": [ -75.132107730000016, 39.965817560000012 ] } },
{ "type": "Feature", "properties": { "Address": "1501 CECIL B MOORE AVE", "City": "Philadelphia", "State": "PA", "Latitude": 39.979008, "Longitude": -75.159669, "StoreNumbe": 33515, "Zip": 19121, "CoporateSt": "TRUE" }, "geometry": { "type": "Point", "coordinates": [ -75.159668890000034, 39.97900822 ] } },
{ "type": "Feature", "properties": { "Address": "1912 LIACOURAS WALK", "City": "Philadelphia", "State": "PA", "Latitude": 39.957740, "Longitude": -75.191408, "StoreNumbe": 22479, "Zip": 0, "CoporateSt": "TRUE" }, "geometry": { "type": "Point", "coordinates": [ -75.19140751, 39.95774035 ] } },
{ "type": "Feature", "properties": { "Address": "3440 MARKET ST", "City": "Philadelphia", "State": "PA", "Latitude": 39.982097, "Longitude": -75.156086, "StoreNumbe": 33285, "Zip": 19122, "CoporateSt": "TRUE" }, "geometry": { "type": "Point", "coordinates": [ -75.156085870000013, 39.98209741 ] } },
{ "type": "Feature", "properties": { "Address": "330 COOPER ST", "City": "Philadelphia", "State": "PA", "Latitude": 39.955765, "Longitude": -75.192199, "StoreNumbe": 35020, "Zip": 19104, "CoporateSt": "TRUE" }, "geometry": { "type": "Point", "coordinates": [ -75.192199010000024, 39.955764859999988 ] } },
{ "type": "Feature", "properties": { "Address": "3401 LANCASTER AVENUE", "City": "Philadelphia", "State": "PA", "Latitude": 39.984398, "Longitude": -75.157028, "StoreNumbe": 36955, "Zip": 19121, "CoporateSt": "TRUE" }, "geometry": { "type": "Point", "coordinates": [ -75.157028200000013, 39.98439789 ] } },
{ "type": "Feature", "properties": { "Address": "4201-59 WALNUT STREET", "City": "Philadelphia", "State": "PA", "Latitude": 39.957740, "Longitude": -75.191408, "StoreNumbe": 22479, "Zip": 0, "CoporateSt": "TRUE" }, "geometry": { "type": "Point", "coordinates": [ -75.19140751, 39.95774035 ] } },
{ "type": "Feature", "properties": { "Address": "150 N BROAD ST", "City": "Philadelphia", "State": "PA", "Latitude": 39.953916, "Longitude": -75.166891, "StoreNumbe": 33380, "Zip": 0, "CoporateSt": "TRUE" }, "geometry": { "type": "Point", "coordinates": [ -75.166891430000021, 39.95391561 ] } },
{ "type": "Feature", "properties": { "Address": "2301 WEST PASSYUNK AVENUE", "City": "Philadelphia", "State": "PA", "Latitude": 39.950468, "Longitude": -75.160325, "StoreNumbe": 33305, "Zip": 19107, "CoporateSt": "TRUE" }, "geometry": { "type": "Point", "coordinates": [ -75.16032456, 39.95046776 ] } },
{ "type": "Feature", "properties": { "Address": "2300 S. BROAD STREET", "City": "Philadelphia", "State": "PA", "Latitude": 39.947975, "Longitude": -75.154471, "StoreNumbe": 33358, "Zip": 19107, "CoporateSt": "TRUE" }, "geometry": { "type": "Point", "coordinates": [ -75.15447062, 39.947975089999979 ] } },
{ "type": "Feature", "properties": { "Address": null, "City": "Philadelphia", "State": "PA", "Latitude": 39.952517, "Longitude": -75.155634, "StoreNumbe": 36493, "Zip": 19107, "CoporateSt": "TRUE" }, "geometry": { "type": "Point", "coordinates": [ -75.155633850000029, 39.95251735 ] } }
]
}
